{
  "type": "FeatureCollection",
  "features": [
    {
      "type": "Feature",
      "properties": {
        "norad_id": 66725,
        "name": "FLOCK 4H-22",
        "group": "last-30-days",
        "lat": 26.712740396853164,
        "lon": 66.25736079513713,
        "alt_km": 512.7199908727198,
        "timestamp": "2025-12-24T11:32:58.718346+00:00",
        "meta_object_name": "FLOCK 4H-22",
        "meta_object_id": "2025-276BM",
        "meta_epoch": "2025-12-24T03:31:06.506976",
        "meta_mean_motion": 15.17505025,
        "meta_eccentricity": 0.0001526,
        "meta_inclination": 97.4375,
        "meta_ra_of_asc_node": 69.698,
        "meta_arg_of_pericenter": 283.2924,
        "meta_mean_anomaly": 76.814,
        "meta_ephemeris_type": 0,
        "meta_classification_type": "U",
        "meta_norad_cat_id": 66725,
        "meta_element_set_no": 999,
        "meta_rev_at_epoch": 385,
        "meta_bstar": 0.00034307,
        "meta_mean_motion_dot": 6.812e-05,
        "meta_mean_motion_ddot": 0,
        "tle_line1": "1 66725U 25276BM  25358.14660309  .00006812  00000+0  34307-3 0  9996",
        "tle_line2": "2 66725  97.4375  69.6980 0001526 283.2924  76.8140 15.17505025  3858"
      },
      "geometry": {
        "type": "Point",
        "coordinates": [
          66.25736079513713,
          26.712740396853164
        ]
      }
    },
    {
      "type": "Feature",
      "properties": {
        "norad_id": 66726,
        "name": "FLOCK 4H-23",
        "group": "last-30-days",
        "lat": 7.874584575153785,
        "lon": 69.00735467432978,
        "alt_km": 517.5688954437019,
        "timestamp": "2025-12-24T11:32:58.718358+00:00",
        "meta_object_name": "FLOCK 4H-23",
        "meta_object_id": "2025-276BN",
        "meta_epoch": "2025-12-24T03:36:19.285344",
        "meta_mean_motion": 15.17981768,
        "meta_eccentricity": 0.0008026,
        "meta_inclination": 97.4432,
        "meta_ra_of_asc_node": 69.7178,
        "meta_arg_of_pericenter": 221.2156,
        "meta_mean_anomaly": 138.8472,
        "meta_ephemeris_type": 0,
        "meta_classification_type": "U",
        "meta_norad_cat_id": 66726,
        "meta_element_set_no": 999,
        "meta_rev_at_epoch": 385,
        "meta_bstar": 0.026184,
        "meta_mean_motion_dot": 0.00568353,
        "meta_mean_motion_ddot": 0,
        "tle_line1": "1 66726U 25276BN  25358.15022321  .00568353  00000+0  26184-1 0  9999",
        "tle_line2": "2 66726  97.4432  69.7178 0008026 221.2156 138.8472 15.17981768  3853"
      },
      "geometry": {
        "type": "Point",
        "coordinates": [
          69.00735467432978,
          7.874584575153785
        ]
      }
    },
    {
      "type": "Feature",
      "properties": {
        "norad_id": 66727,
        "name": "FLOCK 4H-24",
        "group": "last-30-days",
        "lat": 15.461190496643976,
        "lon": 67.97699616795504,
        "alt_km": 515.7495789139075,
        "timestamp": "2025-12-24T11:32:58.718368+00:00",
        "meta_object_name": "FLOCK 4H-24",
        "meta_object_id": "2025-276BP",
        "meta_epoch": "2025-12-24T03:34:02.964288",
        "meta_mean_motion": 15.17340043,
        "meta_eccentricity": 0.0002855,
        "meta_inclination": 97.4439,
        "meta_ra_of_asc_node": 69.7227,
        "meta_arg_of_pericenter": 255.8351,
        "meta_mean_anomaly": 104.2565,
        "meta_ephemeris_type": 0,
        "meta_classification_type": "U",
        "meta_norad_cat_id": 66727,
        "meta_element_set_no": 999,
        "meta_rev_at_epoch": 385,
        "meta_bstar": 0.00032237,
        "meta_mean_motion_dot": 6.367e-05,
        "meta_mean_motion_ddot": 0,
        "tle_line1": "1 66727U 25276BP  25358.14864542  .00006367  00000+0  32237-3 0  9998",
        "tle_line2": "2 66727  97.4439  69.7227 0002855 255.8351 104.2565 15.17340043  3855"
      },
      "geometry": {
        "type": "Point",
        "coordinates": [
          67.97699616795504,
          15.461190496643976
        ]
      }
    },
    {
      "type": "Feature",
      "properties": {
        "norad_id": 66728,
        "name": "FLOCK 4H-25",
        "group": "last-30-days",
        "lat": 79.23855517481185,
        "lon": -66.49857391638167,
        "alt_km": 502.7204221763013,
        "timestamp": "2025-12-24T11:32:58.718380+00:00",
        "meta_object_name": "FLOCK 4H-25",
        "meta_object_id": "2025-276BQ",
        "meta_epoch": "2025-12-24T03:12:41.844096",
        "meta_mean_motion": 15.18226225,
        "meta_eccentricity": 0.0001711,
        "meta_inclination": 97.4397,
        "meta_ra_of_asc_node": 69.7253,
        "meta_arg_of_pericenter": 116.4963,
        "meta_mean_anomaly": 243.6447,
        "meta_ephemeris_type": 0,
        "meta_classification_type": "U",
        "meta_norad_cat_id": 66728,
        "meta_element_set_no": 999,
        "meta_rev_at_epoch": 313,
        "meta_bstar": 0.00030309,
        "meta_mean_motion_dot": 6.136e-05,
        "meta_mean_motion_ddot": 0,
        "tle_line1": "1 66728U 25276BQ  25358.13381764  .00006136  00000+0  30309-3 0  9990",
        "tle_line2": "2 66728  97.4397  69.7253 0001711 116.4963 243.6447 15.18226225  3133"
      },
      "geometry": {
        "type": "Point",
        "coordinates": [
          -66.49857391638167,
          79.23855517481185
        ]
      }
    },
    {
      "type": "Feature",
      "properties": {
        "norad_id": 66729,
        "name": "FLOCK 4H-26",
        "group": "last-30-days",
        "lat": -2.6998931167364493,
        "lon": 70.37638276471738,
        "alt_km": 518.4373283643654,
        "timestamp": "2025-12-24T11:32:58.718391+00:00",
        "meta_object_name": "FLOCK 4H-26",
        "meta_object_id": "2025-276BR",
        "meta_epoch": "2025-12-24T03:38:49.533216",
        "meta_mean_motion": 15.17163701,
        "meta_eccentricity": 0.0003704,
        "meta_inclination": 97.4391,
        "meta_ra_of_asc_node": 69.7001,
        "meta_arg_of_pericenter": 254.8465,
        "meta_mean_anomaly": 105.2359,
        "meta_ephemeris_type": 0,
        "meta_classification_type": "U",
        "meta_norad_cat_id": 66729,
        "meta_element_set_no": 999,
        "meta_rev_at_epoch": 385,
        "meta_bstar": 0.00037816,
        "meta_mean_motion_dot": 7.444e-05,
        "meta_mean_motion_ddot": 0,
        "tle_line1": "1 66729U 25276BR  25358.15196219  .00007444  00000+0  37816-3 0  9995",
        "tle_line2": "2 66729  97.4391  69.7001 0003704 254.8465 105.2359 15.17163701  3859"
      },
      "geometry": {
        "type": "Point",
        "coordinates": [
          70.37638276471738,
          -2.6998931167364493
        ]
      }
    },
    {
      "type": "Feature",
      "properties": {
        "norad_id": 66730,
        "name": "FLOCK 4H-27",
        "group": "last-30-days",
        "lat": 81.23404882164216,
        "lon": 12.151481128194941,
        "alt_km": 503.4621216136011,
        "timestamp": "2025-12-24T11:32:58.718401+00:00",
        "meta_object_name": "FLOCK 4H-27",
        "meta_object_id": "2025-276BS",
        "meta_epoch": "2025-12-24T03:15:55.526112",
        "meta_mean_motion": 15.18097077,
        "meta_eccentricity": 0.000132,
        "meta_inclination": 97.4372,
        "meta_ra_of_asc_node": 69.714,
        "meta_arg_of_pericenter": 127.241,
        "meta_mean_anomaly": 232.8945,
        "meta_ephemeris_type": 0,
        "meta_classification_type": "U",
        "meta_norad_cat_id": 66730,
        "meta_element_set_no": 999,
        "meta_rev_at_epoch": 385,
        "meta_bstar": 0.00036354,
        "meta_mean_motion_dot": 7.347e-05,
        "meta_mean_motion_ddot": 0,
        "tle_line1": "1 66730U 25276BS  25358.13605933  .00007347  00000+0  36354-3 0  9991",
        "tle_line2": "2 66730  97.4372  69.7140 0001320 127.2410 232.8945 15.18097077  3850"
      },
      "geometry": {
        "type": "Point",
        "coordinates": [
          12.151481128194941,
          81.23404882164216
        ]
      }
    },
    {
      "type": "Feature",
      "properties": {
        "norad_id": 66731,
        "name": "FLOCK 4H-28",
        "group": "last-30-days",
        "lat": -1.0577169846432932,
        "lon": 70.15817259418397,
        "alt_km": 517.9643587336768,
        "timestamp": "2025-12-24T11:32:58.718413+00:00",
        "meta_object_name": "FLOCK 4H-28",
        "meta_object_id": "2025-276BT",
        "meta_epoch": "2025-12-24T03:38:23.106912",
        "meta_mean_motion": 15.17151833,
        "meta_eccentricity": 0.0003348,
        "meta_inclination": 97.4377,
        "meta_ra_of_asc_node": 69.6965,
        "meta_arg_of_pericenter": 262.5295,
        "meta_mean_anomaly": 97.5558,
        "meta_ephemeris_type": 0,
        "meta_classification_type": "U",
        "meta_norad_cat_id": 66731,
        "meta_element_set_no": 999,
        "meta_rev_at_epoch": 385,
        "meta_bstar": 0.00048455,
        "meta_mean_motion_dot": 9.556e-05,
        "meta_mean_motion_ddot": 0,
        "tle_line1": "1 66731U 25276BT  25358.15165633  .00009556  00000+0  48455-3 0  9991",
        "tle_line2": "2 66731  97.4377  69.6965 0003348 262.5295  97.5558 15.17151833  3852"
      },
      "geometry": {
        "type": "Point",
        "coordinates": [
          70.15817259418397,
          -1.0577169846432932
        ]
      }
    }
  ]
}